{
  "type": "FeatureCollection",
  "features": [
    {
      "type": "Feature",
      "properties": {
        "norad_id": 66842,
        "name": "STARLINK-35769",
        "group": "last-30-days",
        "lat": 69.66670377711745,
        "lon": -91.69711085526714,
        "alt_km": 360.8805740584203,
        "timestamp": "2025-12-16T05:49:07.985062+00:00",
        "meta_object_name": "STARLINK-35769",
        "meta_object_id": "2025-280X",
        "meta_epoch": "2025-12-15T22:00:01.999584",
        "meta_mean_motion": 15.68897151,
        "meta_eccentricity": 0.00036625,
        "meta_inclination": 69.9981,
        "meta_ra_of_asc_node": 189.7958,
        "meta_arg_of_pericenter": 277.9845,
        "meta_mean_anomaly": 129.8145,
        "meta_ephemeris_type": 0,
        "meta_classification_type": "U",
        "meta_norad_cat_id": 66842,
        "meta_element_set_no": 999,
        "meta_rev_at_epoch": 340,
        "meta_bstar": -0.019078492,
        "meta_mean_motion_dot": -0.0194784,
        "meta_mean_motion_ddot": 0,
        "tle_line1": "1 66842U 25280X   25349.91668981 -.01947840  00000+0 -19078-1 0  9994",
        "tle_line2": "2 66842  69.9981 189.7958 0003662 277.9845 129.8145 15.68897151  3404"
      },
      "geometry": {
        "type": "Point",
        "coordinates": [
          -91.69711085526714,
          69.66670377711745
        ]
      }
    },
    {
      "type": "Feature",
      "properties": {
        "norad_id": 66843,
        "name": "STARLINK-35997",
        "group": "last-30-days",
        "lat": 69.98304007519391,
        "lon": -80.59534391972524,
        "alt_km": 360.85978804171737,
        "timestamp": "2025-12-16T05:49:07.985073+00:00",
        "meta_object_name": "STARLINK-35997",
        "meta_object_id": "2025-280Y",
        "meta_epoch": "2025-12-15T22:00:01.999584",
        "meta_mean_motion": 15.68895425,
        "meta_eccentricity": 0.00036362,
        "meta_inclination": 69.9972,
        "meta_ra_of_asc_node": 189.7916,
        "meta_arg_of_pericenter": 278.6685,
        "meta_mean_anomaly": 132.9646,
        "meta_ephemeris_type": 0,
        "meta_classification_type": "U",
        "meta_norad_cat_id": 66843,
        "meta_element_set_no": 999,
        "meta_rev_at_epoch": 340,
        "meta_bstar": -0.01905882,
        "meta_mean_motion_dot": -0.01945914,
        "meta_mean_motion_ddot": 0,
        "tle_line1": "1 66843U 25280Y   25349.91668981 -.01945914  00000+0 -19059-1 0  9994",
        "tle_line2": "2 66843  69.9972 189.7916 0003636 278.6685 132.9646 15.68895425  3403"
      },
      "geometry": {
        "type": "Point",
        "coordinates": [
          -80.59534391972524,
          69.98304007519391
        ]
      }
    },
    {
      "type": "Feature",
      "properties": {
        "norad_id": 66844,
        "name": "STARLINK-36073",
        "group": "last-30-days",
        "lat": 69.91233328892284,
        "lon": -86.18633580892433,
        "alt_km": 360.8575572008367,
        "timestamp": "2025-12-16T05:49:07.985083+00:00",
        "meta_object_name": "STARLINK-36073",
        "meta_object_id": "2025-280Z",
        "meta_epoch": "2025-12-15T22:00:01.999584",
        "meta_mean_motion": 15.68894762,
        "meta_eccentricity": 0.00036528,
        "meta_inclination": 69.998,
        "meta_ra_of_asc_node": 189.7947,
        "meta_arg_of_pericenter": 278.9108,
        "meta_mean_anomaly": 130.8051,
        "meta_ephemeris_type": 0,
        "meta_classification_type": "U",
        "meta_norad_cat_id": 66844,
        "meta_element_set_no": 999,
        "meta_rev_at_epoch": 340,
        "meta_bstar": -0.019027118,
        "meta_mean_motion_dot": -0.01943015,
        "meta_mean_motion_ddot": 0,
        "tle_line1": "1 66844U 25280Z   25349.91668981 -.01943015  00000+0 -19027-1 0  9990",
        "tle_line2": "2 66844  69.9980 189.7947 0003652 278.9108 130.8051 15.68894762  3408"
      },
      "geometry": {
        "type": "Point",
        "coordinates": [
          -86.18633580892433,
          69.91233328892284
        ]
      }
    },
    {
      "type": "Feature",
      "properties": {
        "norad_id": 66845,
        "name": "STARLINK-36068",
        "group": "last-30-days",
        "lat": 69.15809253914136,
        "lon": -64.23710328397236,
        "alt_km": 360.9502916141464,
        "timestamp": "2025-12-16T05:49:07.985094+00:00",
        "meta_object_name": "STARLINK-36068",
        "meta_object_id": "2025-280AA",
        "meta_epoch": "2025-12-15T22:00:01.999584",
        "meta_mean_motion": 15.68881449,
        "meta_eccentricity": 0.00036552,
        "meta_inclination": 69.9979,
        "meta_ra_of_asc_node": 189.7842,
        "meta_arg_of_pericenter": 275.3714,
        "meta_mean_anomaly": 142.0153,
        "meta_ephemeris_type": 0,
        "meta_classification_type": "U",
        "meta_norad_cat_id": 66845,
        "meta_element_set_no": 999,
        "meta_rev_at_epoch": 340,
        "meta_bstar": -0.018781451,
        "meta_mean_motion_dot": -0.01919819,
        "meta_mean_motion_ddot": 0,
        "tle_line1": "1 66845U 25280AA  25349.91668981 -.01919819  00000+0 -18781-1 0  9992",
        "tle_line2": "2 66845  69.9979 189.7842 0003655 275.3714 142.0153 15.68881449  3404"
      },
      "geometry": {
        "type": "Point",
        "coordinates": [
          -64.23710328397236,
          69.15809253914136
        ]
      }
    },
    {
      "type": "Feature",
      "properties": {
        "norad_id": 66846,
        "name": "STARLINK-36055",
        "group": "last-30-days",
        "lat": 69.87916202055318,
        "lon": -75.01864901013148,
        "alt_km": 360.84976547201495,
        "timestamp": "2025-12-16T05:49:07.985109+00:00",
        "meta_object_name": "STARLINK-36055",
        "meta_object_id": "2025-280AB",
        "meta_epoch": "2025-12-15T22:00:01.999584",
        "meta_mean_motion": 15.6889333,
        "meta_eccentricity": 0.00035782,
        "meta_inclination": 69.9976,
        "meta_ra_of_asc_node": 189.7887,
        "meta_arg_of_pericenter": 276.1649,
        "meta_mean_anomaly": 137.3862,
        "meta_ephemeris_type": 0,
        "meta_classification_type": "U",
        "meta_norad_cat_id": 66846,
        "meta_element_set_no": 999,
        "meta_rev_at_epoch": 340,
        "meta_bstar": -0.019040019,
        "meta_mean_motion_dot": -0.01944007,
        "meta_mean_motion_ddot": 0,
        "tle_line1": "1 66846U 25280AB  25349.91668981 -.01944007  00000+0 -19040-1 0  9999",
        "tle_line2": "2 66846  69.9976 189.7887 0003578 276.1649 137.3862 15.68893330  3407"
      },
      "geometry": {
        "type": "Point",
        "coordinates": [
          -75.01864901013148,
          69.87916202055318
        ]
      }
    },
    {
      "type": "Feature",
      "properties": {
        "norad_id": 66847,
        "name": "STARLINK-36061",
        "group": "last-30-days",
        "lat": 69.60175525904663,
        "lon": -69.53714923640317,
        "alt_km": 360.9293762082398,
        "timestamp": "2025-12-16T05:49:07.985119+00:00",
        "meta_object_name": "STARLINK-36061",
        "meta_object_id": "2025-280AC",
        "meta_epoch": "2025-12-15T22:00:01.999584",
        "meta_mean_motion": 15.68880824,
        "meta_eccentricity": 0.00036799,
        "meta_inclination": 69.9977,
        "meta_ra_of_asc_node": 189.7864,
        "meta_arg_of_pericenter": 275.3394,
        "meta_mean_anomaly": 140.1312,
        "meta_ephemeris_type": 0,
        "meta_classification_type": "U",
        "meta_norad_cat_id": 66847,
        "meta_element_set_no": 999,
        "meta_rev_at_epoch": 336,
        "meta_bstar": -0.018770219,
        "meta_mean_motion_dot": -0.0191878,
        "meta_mean_motion_ddot": 0,
        "tle_line1": "1 66847U 25280AC  25349.91668981 -.01918780  00000+0 -18770-1 0  9998",
        "tle_line2": "2 66847  69.9977 189.7864 0003679 275.3394 140.1312 15.68880824  3365"
      },
      "geometry": {
        "type": "Point",
        "coordinates": [
          -69.53714923640317,
          69.60175525904663
        ]
      }
    },
    {
      "type": "Feature",
      "properties": {
        "norad_id": 66848,
        "name": "STARLINK-36091",
        "group": "last-30-days",
        "lat": 13.787234530765303,
        "lon": 116.05196825054095,
        "alt_km": 322.08326033472804,
        "timestamp": "2025-12-16T05:49:07.985129+00:00",
        "meta_object_name": "STARLINK-36091",
        "meta_object_id": "2025-281A",
        "meta_epoch": "2025-12-15T22:00:01.999584",
        "meta_mean_motion": 15.83073046,
        "meta_eccentricity": 0.00017719,
        "meta_inclination": 43.0006,
        "meta_ra_of_asc_node": 102.7832,
        "meta_arg_of_pericenter": 278.5908,
        "meta_mean_anomaly": 43.5897,
        "meta_ephemeris_type": 0,
        "meta_classification_type": "U",
        "meta_norad_cat_id": 66848,
        "meta_element_set_no": 999,
        "meta_rev_at_epoch": 191,
        "meta_bstar": -0.0059543272,
        "meta_mean_motion_dot": -0.01175718,
        "meta_mean_motion_ddot": 0,
        "tle_line1": "1 66848U 25281A   25349.91668981 -.01175718  00000+0 -59543-2 0  9990",
        "tle_line2": "2 66848  43.0006 102.7832 0001771 278.5908  43.5897 15.83073046  1919"
      },
      "geometry": {
        "type": "Point",
        "coordinates": [
          116.05196825054095,
          13.787234530765303
        ]
      }
    }
  ]
}